0 SKYSAT-C1               
1 41601U 16040C   21054.84580063  .00002841  00000-0  76995-4 0  9994
2 41601  97.2015 134.4017 0002043  20.0502 340.0824 15.38459131260353
0 SKYSAT-C2               
1 41773U 16058D   21054.97058933  .00002733  00000-0  73860-4 0  9991
2 41773  97.1809 126.6123 0001871 106.2993 253.8459 15.38574663247351
0 SKYSAT-C3               
1 41774U 16058E   21054.98429164  .00002720  00000-0  73590-4 0  9997
2 41774  97.1804 126.5809 0001916 103.3381 256.8079 15.38554250247346
0 SKYSAT-C4               
1 41771U 16058B   21055.12664953  .00002718  00000-0  73509-4 0  9995
2 41771  97.1802 126.4289 0002237  97.8376 262.3124 15.38563438247352
0 SKYSAT-C5               
1 41772U 16058C   21054.69029328  .00001066  00000-0  46445-4 0  9992
2 41772  97.3270 125.2694 0002069  93.4467  58.3404 15.24331029246804
0 SKYSAT-C6               
1 42992U 17068F   21054.57550444  .00003226  00000-0  85336-4 0  9996
2 42992  97.2532 172.2477 0003374 112.7783 247.3819 15.39121990184751
0 SKYSAT-C7               
1 42991U 17068E   21054.71551387  .00003105  00000-0  82197-4 0  9996
2 42991  97.2516 172.1273 0001845  79.0171 281.1282 15.39130992184765
0 SKYSAT-C8               
1 42990U 17068D   21054.59706122  .00003159  00000-0  83466-4 0  9999
2 42990  97.2510 171.9947 0000938 148.7288 211.4013 15.39177064184745
0 SKYSAT-C9               
1 42989U 17068C   21054.54033679  .00003145  00000-0  83014-4 0  9996
2 42989  97.2465 171.0335 0002920  98.1335 262.0242 15.39211192184903
0 SKYSAT-C10              
1 42988U 17068B   21054.74973879  .00003075  00000-0  81311-4 0  9992
2 42988  97.2509 171.7581 0001230 266.8076  93.3029 15.39168320184744
0 SKYSAT-C11              
1 42987U 17068A   21055.08491370  .00003371  00000-0  88707-4 0  9995
2 42987  97.2469 172.1762 0008616 214.5026 145.5662 15.39226153184779
0 SKYSAT-C12              
1 43797U 18099AR  21054.88123957  .00002825  00000-0  76190-4 0  9996
2 43797  97.1863 127.3255 0002923 102.0080 258.1494 15.38619783123840
0 STARLINK-1115           
1 44973U 20001BM  21055.01211163  .00000603  00000-0  59442-4 0  9995
2 44973  53.0566 285.2391 0002690  80.5557 279.5736 15.06395937 63120
0 STARLINK-1175           
1 45097U 20006BF  21054.41916253  .00114771  16288-4  30057-3 0  9994
2 45097  52.9866  58.4982 0008110 282.8723  77.1398 15.94695706 61993
0 STARLINK-1235           
1 45232U 20012BG  21055.17244772 -.00000845  00000-0 -37802-4 0  9991
2 45232  53.0576 344.5265 0002083  85.5356 274.5870 15.06388239 57187
0 STARLINK-1313           
1 45364U 20019E   21055.20100227  .00000806  00000-0  72966-4 0  9999
2 45364  53.0581 114.3782 0001013  77.4343 282.6759 15.06398828 52887
0 STARLINK-1306           
1 45362U 20019C   21054.50898191 -.00000514  00000-0 -15592-4 0  9993
2 45362  53.0583 147.4835 0001327  93.8088 266.3052 15.06399232 52367
0 STARLINK-1301           
1 45361U 20019B   21054.46290465 -.00001100  00000-0 -55004-4 0  9991
2 45361  53.0562 127.7054 0001266  91.5882 268.5252 15.06389651 52647
0 STARLINK-1238           
1 45233U 20012BH  21055.15217387 -.00000594  00000-0 -20996-4 0  9999
2 45233  53.0595   4.6143 0002148  69.2349 290.8870 15.06390808 56917
0 STARLINK-1229           
1 45231U 20012BF  21055.15125550 -.00009343  00000-0 -62213-3 0  9995
2 45231  53.0022 344.6291 0001524  77.3151 282.8008 15.05626446 57193
0 STARLINK-1210           
1 45207U 20012AF  21055.13742336  .00001117  00000-0  93869-4 0  9994
2 45207  53.0597   4.6818 0002262  61.8779 298.2438 15.06406544 56918
0 STARLINK-1209           
1 45206U 20012AE  21055.07660990 -.00001092  00000-0 -54420-4 0  9995
2 45206  53.0590 344.9517 0001795  75.5175 284.6013 15.06391441 57174
0 SKYSAT-C13              
1 43802U 18099AW  21054.80522310  .00001914  00000-0  61145-4 0  9993
2 43802  97.2179 126.8542 0004110 178.5006 181.6250 15.33659152123532
0 IRIDIUM 180             
1 43922U 19002A   21054.91999562  .00000114  00000-0  33599-4 0  9993
2 43922  86.3924  84.0358 0002849  72.1343 288.0163 14.34218278111039
0 IRIDIUM 168             
1 43924U 19002C   21055.05318472  .00000103  00000-0  29737-4 0  9993
2 43924  86.3925  84.0025 0002242  84.4427 275.7024 14.34219798111036
0 IRIDIUM 173             
1 43925U 19002D   21054.48234861  .00000109  00000-0  31892-4 0  9990
2 43925  86.3923  84.2091 0002306  87.1650 272.9810 14.34219997110930
0 IRIDIUM 169             
1 43926U 19002E   21054.96781431  .00000097  00000-0  25105-4 0  9990
2 43926  86.4213 115.6220 0003262 224.6285 135.4651 14.38605551111421
0 IRIDIUM 172             
1 43927U 19002F   21054.47601405  .00000108  00000-0  31536-4 0  9997
2 43927  86.3923  84.2137 0002335  84.9872 275.1591 14.34217413110949
0 ONEWEB-0020             
1 45133U 20008C   21055.25002315 -.00012289  00000-0 -35286-1 0  9996
2 45133  87.8773  61.7224 0001599  85.8281 265.6954 13.10373409 55194
0 ONEWEB-0040             
1 45147U 20008S   21055.25002315 -.00012806  00000-0 -36793-1 0  9990
2 45147  87.8771  61.7944 0002058 104.6391 232.1735 13.10336381 54721
0 ONEWEB-0060             
1 45455U 20020AH  21055.25002315  .00008558  00000-0  24093-1 0  9993
2 45455  87.8851  46.5336 0001839  92.8389 139.4478 13.11404232 48424
0 ONEWEB-0050             
1 45453U 20020AF  21055.25002315  .00043232  00000-0  39211-2 0  9998
2 45453  87.5427  31.0987 0027535 144.2917 337.8918 14.94837985 50837
0 ONEWEB-0090             
1 45427U 20020D   21055.25002315  .00008439  00000-0  23757-1 0  9996
2 45427  87.8855  46.5500 0001940  90.7897 134.0555 13.11405978 48542
0 ONEWEB-0080             
1 45426U 20020C   21055.25002315  .00009160  00000-0  25789-1 0  9994
2 45426  87.8857  46.5361 0002134  74.3838 201.8800 13.11407066 48587
0 EMISAT                  
1 44078U 19018A   21055.13644594 -.00000004  00000-0  11367-4 0  9998
2 44078  98.2915 112.7824 0018025 315.5405  44.4340 14.43746778100273
0 RESOURCESAT-2A          
1 41877U 16074A   21055.20408578  .00000003  00000-0  21398-4 0  9992
2 41877  98.7676 129.9588 0001142  92.9552 267.1756 14.21603361218815
